#cP2015  3  2  0  0  0.00000000      96 ORBIT IGb08 HLM  IGS
## 1834  86400.00000000   900.00000000 57083 0.0000000000000
+   31   G01G02G03G04G05G06G07G08G09G10G11G12G13G14G15G16G17
+        G18G19G20G21G22G23G24G25G27G28G29G30G31G32  0  0  0
+          0  0  0  0  0  0  0  0  0  0  0  0  0  0  0  0  0
+          0  0  0  0  0  0  0  0  0  0  0  0  0  0  0  0  0
+          0  0  0  0  0  0  0  0  0  0  0  0  0  0  0  0  0
++         2  2  3  2  2  2  2  3  2  2  2  2  2  2  2  2  2
++         2  2  2  2  2  2  2  2  2  2  2  2  2  2  0  0  0
++         0  0  0  0  0  0  0  0  0  0  0  0  0  0  0  0  0
++         0  0  0  0  0  0  0  0  0  0  0  0  0  0  0  0  0
++         0  0  0  0  0  0  0  0  0  0  0  0  0  0  0  0  0
%c G  cc GPS ccc cccc cccc cccc cccc ccccc ccccc ccccc ccccc
%c cc cc ccc ccc cccc cccc cccc cccc ccccc ccccc ccccc ccccc
%f  1.2500000  1.025000000  0.00000000000  0.000000000000000
%f  0.0000000  0.000000000  0.00000000000  0.000000000000000
%i    0    0    0    0      0      0      0      0         0
%i    0    0    0    0      0      0      0      0         0
/* FINAL ORBIT COMBINATION FROM WEIGHTED AVERAGE OF:        
/* cod emr esa gfz grg jpl mit ngs sio                      
/* REFERENCED TO IGS TIME (IGST) AND TO WEIGHTED MEAN POLE: 
/* PCV:IGS08_1832 OL/AL:FES2004  NONE     Y  ORB:CMB CLK:CMB
*  2015  3  2  3  0  0.00000000
PG01  13566.248641 -21237.349147   8053.542276     -8.454629  6  6  8 114       
PG02 -15922.984167    -88.658686 -20849.316394    550.997762  8  8  6 103       
PG03  18465.941299 -13288.181283 -13738.072953    235.318910 11  7  5 103       
PG04  16446.626570 -13374.045797  15523.888740     -8.206900  7  6  8 113       
PG05 -26283.723359   2287.970461  -3873.070833   -272.410911  9  9  7  98       
PG06  -9227.391142 -15244.875965 -19703.715901     96.593508  7  3  5  74       
PG07   5999.329365 -25226.894556   4879.319695    444.354402  6  7  5  90       
PG08  14450.108319   2838.085020 -21835.492481     18.095342  6  8  8 141       
PG09  -2332.479665 -20577.627038 -16633.160629   -101.494413  6  7  5  82       
PG10 -15716.307934 -11124.005059 -18847.780306   -165.500961  6  7  7 103       
PG11  12155.854449 -17635.362247  15098.305580   -561.364971  6  5  6 102       
PG12 -21043.970791  10877.643072 -11864.468173    273.287542 10  9  6 107       
PG13 -18744.110396  -6390.661222  17488.002569    -92.841626  5  4  7 135       
PG14  15606.143459  21593.248648    299.004219     82.782080  5  5  4 132       
PG15 -14479.323722   7282.330625  20989.998055   -235.243018 10  8  7 107       
PG16  26469.372987   -628.451308  -3998.317240   -151.895716  6  7  7 110       
PG17 -14693.924916 -22094.117955   3054.134221   -158.663883  7  6  5 108       
PG18   1442.842853  16203.767189  21461.787883    383.233968  7  6  4 111       
PG19  16490.267731  -1342.539201  20701.150165   -502.429529  8  6  7 100       
PG20 -11570.383240 -12814.543245 -20413.382608    295.117819  8  6  5 140       
PG21  -1010.300660  24863.416656   9390.402031   -422.002864  8  8  6 100       
PG22  14616.288067  11742.216255  19095.325471    323.836239  6  6  4 130       
PG23   7915.278198 -13926.983114 -20987.622354    -92.251559  9  7  5 121       
PG24 -14544.169222  19302.693734  10819.271057    -44.292887  6  6  6 126       
PG25  -8996.501883  15283.033081 -19803.421259     -7.606678  6  6  5 105       
PG27  20501.846698   7850.282120  15012.061177     54.950035  5  7  6 107       
PG28  -9078.376633 -13340.759944  21738.976993    423.015389  5  5  3  83       
PG29  -1802.498009  18668.789140 -18790.186801    595.176593 10 10  8 120       
PG30  -1130.943975 -22378.016645  14217.164840    -82.443311  5  5  6 106       
PG31  10466.376534  12189.030070 -20946.061066    322.132313  6  6  5 132       
PG32  25889.031576  -4011.004347  -1814.436444   -211.574043  7  5  4 105       
*  2015  3  2  3 15  0.00000000
PG01  13464.059699 -20134.866747  10642.708473     -8.454251  6  6  8 111       
PG02 -15301.452400  -2501.386210 -21198.978938    550.999849  8  8  6  97       
PG03  19915.658929 -13398.137943 -11414.468293    235.336012 11  8  4 107       
PG04  16100.813220 -11444.425583  17314.869144     -8.207603  7  6  8 113       
PG05 -25767.887038   1890.371709  -6605.788040   -272.406233  8  9  7  88       
PG06  -8463.686981 -17283.696081 -18315.679062     96.603301  7  3  5 100       
PG07   6360.575806 -25512.780097   2017.648241    444.357199  6  7  5  96       
PG08  13408.524648   5171.961989 -22122.146520     18.096798  6  8  8 116       
PG09   -860.033857 -19215.937590 -18319.863134   -101.503965  6  7  6  79       
PG10 -13637.859303 -11678.277491 -20077.380458   -165.503018  6  6  6 112       
PG11  12518.333454 -15707.145919  16792.205835   -561.367393  6  5  6  98       
PG12 -22257.019213  10923.701535  -9295.093102    273.290261 10 10  6 105       
PG13 -19756.838541  -8029.704267  15601.933224    -92.844724  5  4  7 133       
PG14  15323.467953  21597.597360   3149.539501     82.778886  6  5  4 127       
PG15 -16124.730472   5551.293613  20340.614591   -235.244853  9  8  6 113       
PG16  25895.682300   -398.949629  -6801.784639   -151.892814  5  7  7  98       
PG17 -14234.848920 -21861.401711   5858.496582   -158.665930  6  6  5  94       
PG18   -855.595181  16699.292033  21073.858440    383.236614  7  7  4 116       
PG19  17841.231940    557.499604  19638.507839   -502.430621  8  6  7  94       
PG20  -9346.656000 -13555.707610 -21060.912357    295.121550  8  7  5  51       
PG21  -1566.460749  25591.103344   6775.372406   -422.006492  8  8  6  93       
PG22  12494.976738  12382.423088  20163.336336    323.840316  7  5  4 132       
PG23   9615.472698 -12143.408618 -21417.045857    -92.253826  9  7  5 121       
PG24 -14375.688248  17908.638323  13189.509049    -44.294083  6  6  6 113       
PG25 -11136.141587  15650.414171 -18356.334269     -7.609301  6  5  5  81       
PG27  21448.033711   9138.973429  12808.679866     54.952373  5  7  6 100       
PG28  -6727.743227 -13723.990105  22356.224410    423.017940  5  5  2  89       
PG29  -3297.051329  17013.685501 -20106.547219    595.178570 10 10  9 118       
PG30   -374.036782 -23691.436568  11944.999134    -82.441448  5  5  6 100       
PG31   9596.174354  14395.206731 -19914.826645    322.131585  7  6  4 138       
PG32  25978.400817  -3682.904742   1045.720378   -211.565967  7  5  4 107       
*  2015  3  2  3 30  0.00000000
PG01  13348.300795 -18753.652895  13046.559525     -8.453857  6  6  8 115       
PG02 -14792.935171  -4954.616341 -21171.427622    551.001981  8  8  6 111       
PG03  21094.148621 -13508.085740  -8894.825086    235.353033 11  8  4 107       
PG04  15804.102378  -9318.002662  18797.867216     -8.208453  6  6  9 112       
PG05 -24983.685245   1383.281561  -9226.184501   -272.401576  7  9  7  90       
PG06  -7849.966357 -19189.860069 -16612.717658     96.613145  7  4  5  95       
PG07   6619.246753 -25500.003936   -879.487613    444.359722  6  7  5  98       
PG08  12499.564306   7565.406298 -22020.349392     18.095820  5  8  8 125       
PG09    805.280997 -17812.185070 -19691.426527   -101.513468  7  6  6  85       
PG10 -11474.576913 -12368.624787 -20975.666516   -165.505116  6  6  6  93       
PG11  12973.518359 -13617.710385  18184.394927   -561.369794  6  5  6 108       
PG12 -23172.863461  10966.698511  -6564.269936    273.293115  9 10  6 110       
PG13 -20708.868355  -9433.668258  13443.205080    -92.847929  6  4  8 131       
PG14  14831.677100  21378.070655   5946.539123     82.775598  6  5  4 127       
PG15 -17779.217894   3965.180679  19340.565159   -235.246720  9  8  6 118       
PG16  25034.576172    -70.157322  -9490.995672   -151.889743  4  7  7 109       
PG17 -13552.767090 -21428.430476   8564.032411   -158.667426  6  6  5  94       
PG18  -3072.333517  17286.509990  20336.917391    383.239059  8  8  4 113       
PG19  19198.417513   2272.354446  18237.091466   -502.432026  8  6  6  90       
PG20  -7110.690134 -14419.260999 -21353.031269    295.125012  8  6  5 145       
PG21  -2024.039638  26052.454064   4043.254100   -422.010043  8  9  6 102       
PG22  10309.437573  13150.324215  20892.018164    323.844132  7  5  4 130       
PG23  11418.806772 -10430.044523 -21472.550329    -92.256264  9  7  5 125       
PG24 -14219.219831  16258.982775  15330.770343    -44.294458  6  6  6 102       
PG25 -13079.349004  16084.089094 -16593.686178     -7.611907  5  5  5 100       
PG27  22272.630988  10193.846315  10385.861259     54.954733  5  7  6 101       
PG28  -4356.688504 -14253.528021  22610.534298    423.020159  5  5  2  95       
PG29  -4967.259077  15346.143939 -21076.314070    595.181114  9 11  9 118       
PG30    229.411731 -24786.795592   9466.674930    -82.439572  5  6  6 111       
PG31   8882.806124  16514.268603 -18533.871932    322.130825  7  7  3 135       
PG32  25763.244761  -3296.712057   3887.255091   -211.557753  7  5  4 109       
EOF
